QIANFAN GROUP 7 OBJECT Q
1 68650U 26075Q   26103.49848635  .00000277  00000+0  10849-3 0  9994
2 68650  88.9919 328.0293 0013880 195.9771 164.0987 14.26674836   841
