{
  "norad_id": 68650,
  "name": "QIANFAN GROUP 7 OBJECT Q",
  "history": [
    {
      "epoch": "2026-04-13T11:57:49.220640Z",
      "apogee_km": 812.8349669855907,
      "perigee_km": 792.8992070592803,
      "latitude_deg": 1.3279082672053181e-05,
      "longitude_deg": -53.114185311585494,
      "height_km": 815.519226126255,
      "semi_major_axis_km": 7181.004087022435,
      "eccentricity": 0.00138809,
      "inclination_deg": 88.9919,
      "raan_deg": 328.0293,
      "arg_perigee_deg": 195.9771,
      "mean_anomaly_deg": 164.0987,
      "mean_motion_rev_day": 14.26674836
    }
  ]
}